#dP2021 10 19  0  0  0.00000000      96 __u+U ITR00 FIT  IAC
## 2180 172800.00000000   900.00000000 59506 0.0000000000000
+  114   C06C07C08C09C10C11C12C13C14C16C19C20C21C22C23C24C25
+        C26C27C28C29C30C32C33C34C35C36C37C38C39C40C41C42C43
+        C44C45C46E01E02E03E04E05E07E08E09E11E12E13E14E15E18
+        E19E21E24E25E26E27E30E31E33E36G01G02G03G04G05G06G07
+        G08G09G10G11G12G13G14G15G16G17G18G19G20G21G22G23G24
+        G25G26G27G28G29G30G31G32R01R02R03R04R05R07R08R09R11
+        R12R13R14R15R16R17R18R19R20R21R22R24  0  0  0  0  0
++         8  8  8  7  8  7  6  8  7  8  7  7  6  6  8  6  7
++         7  6  7  7  8  7  6  7  7  6  8  8  8  8  7  7  6
++         7  7  6  7  6  8  6  7  6  7  8  7  7  7  6  7  6
++         7  7  7  6  7  6  7  5  7  6  6  8  6  7  8  6  6
++         6  6  8  8  5  6  6  5  7  7  7  7  6  7  4  7  7
++         6  6  6  6  8  7  7  8  6  7  5  7  6  6  6  7  7
++         6  6  7  6  7  7  8  7  7  6  7  8  0  0  0  0  0
%c M  cc GPS ccc cccc cccc cccc cccc ccccc ccccc ccccc ccccc
%c cc cc ccc ccc cccc cccc cccc cccc ccccc ccccc ccccc ccccc
%f  0.0000000  0.000000000  0.00000000000  0.000000000000000
%f  0.0000000  0.000000000  0.00000000000  0.000000000000000
%i    0    0    0    0      0      0      0      0         0
%i    0    0    0    0      0      0      0      0         0
/* INFORMATION & ANALYSIS CENTER (IAC)      ULTRA-RAPID DATA
/* S/V CLOCKS ARE ALIGNED TO GNSS TIME                      
/* G:C1WC2W R:C1PC2P E:C1XC5X C:C2IC6I J:C1CC2S             
/* PCV:IGS14_2163 OL/AL:FES2004  NONE     YN ORB:CoN CLK:CoN
*  2021 10 19  6  0  0.00000000
PC06  -1140.186738  34231.474917  24697.235897    356.955708
PC07 -15042.983918  25909.355455 -29701.570274   -231.040414
PC08 -15772.041364  38211.645231   7882.807725   -850.658831
PC09   4796.160821  38107.468231  18217.864267   -196.054570
PC10  -6201.757136  26766.409334 -31796.162230      7.567793
PC11  18474.845271  12445.522209  16844.127575    639.520886
PC12  13057.629244  24635.177768    698.818239    737.061129
PC13  -9950.738988  38366.934270  14037.033229    446.876622
PC14  26683.332870   5204.324823   6191.320126    578.571816
PC16  -3897.500761  31812.385996  27642.165089   -758.048717
PC19 -27678.194300   1391.059092   3351.800589    946.801305
PC20 -22571.638385  -9844.528178 -13147.023238   -792.569067
PC21   3550.416389  15831.345669  22709.455501   -932.105887
PC22 -16979.409151  12186.749605  18493.862202   -959.171518
PC23  16720.826518 -22127.656836  -3109.808265   -971.882802
PC24  11106.096371  12427.686206 -22380.621536   -973.716376
PC25  19830.334559  -8243.750166 -17834.941895   -837.831044
PC26  -2534.627000  23877.096658 -14195.062725    834.109061
PC27  -6785.560374 -25795.815325   8169.462136    615.513991
PC28   7785.391698 -16667.966413  20991.748613    -13.136835
PC29 -17848.311938  -1583.270385 -21399.343524    462.479478
PC30 -17861.479822 -19545.756460  -8793.090274    483.881118
PC32  -3614.668921 -15815.613607 -22700.382089   -969.359426
PC33  27671.994678  -1478.034265  -3243.155443   -968.634660
PC34  18094.575953  18991.117893   9538.725109   -556.557910
PC35  -7570.518321  16618.733554 -21112.644211    -39.545306
PC36 -19950.080366   7310.681714  18117.520486   -782.118227
PC37   3936.641019 -24166.863382  13429.542457   -876.709596
PC38 -19958.147476  37020.491108   -721.466589    183.297402
PC39  -7273.010792  27770.730352  30925.031668     33.685327
PC40 -20944.309198  19360.302148 -31100.624768    209.803389
PC41  17287.205248 -12099.701308 -18225.450394   -921.866627
PC42  21912.368732  10335.331413  13872.038295   -958.084633
PC43  18120.115931   2264.305076  21100.988202   -966.347642
PC44   7465.439680  25575.779416  -8351.878055    436.745473
PC45 -16592.188873  22225.722582   2963.790138    577.735758
PC46 -11834.708159 -11276.645909  22629.408308     33.018470
PE01  11000.772817  12716.641956 -24351.512936   -498.586773
PE02 -11128.214983 -12641.191131  24347.202669    254.451200
PE03 -20497.613914 -19392.208791  -8971.327606   -486.682388
PE04  26890.904011   8177.288279  -9287.717541   -880.908575
PE05  -1942.256006 -19404.092683 -22273.735432   -240.648164
PE07 -17516.677281   8112.660308  22439.640474   -597.585916
PE08 -26867.820089  -7823.170784   9659.392428   5919.249640
PE09  17230.811138  -8242.982249 -22613.710062   5493.295153
PE11  12814.196690 -18037.458063  19653.478728   5240.222485
PE12  15960.974832   4560.614570  24507.332663   4953.430493
PE13 -12908.386663  17563.733811 -20019.976549    422.755655
PE14  13397.141394  21931.005455  -8303.113321  -1609.970054
PE15 -15892.360839  -4565.695598 -24546.319720    785.924582
PE18 -24709.290832 -16761.642955  -6209.719994  -1768.478643
PE19  18733.510901  20040.331762  11120.902392    405.829994
PE21  -8670.741570  20270.855696 -19741.242141   -694.488387
PE24  24873.117866 -15875.744759   2493.622389  -1179.011141
PE25   8899.762696 -20309.547535  19624.467409   -550.545088
PE26  -1835.865269  29409.998137  -2715.476511   1212.939518
PE27 -24316.936697  16497.370265  -3510.171445   -145.504988
PE30 -25104.589406   1938.179181  15550.298047   2528.596717
PE31  25543.570691  -3079.579357 -14625.007600   -486.959486
PE33   9509.438986  23924.061382  14607.477317   -463.577324
PE36   2348.245110 -29271.727579   3740.924143   -278.031105
PG01  13243.126356 -16878.227479  15158.751007    535.228247
PG02 -13969.083614  -6606.983962 -20940.184989   -638.131114
PG03  22389.701546 -12830.417735  -6166.317724   -330.123749
PG04  13230.775187  -8329.234544 -21477.784645   -203.462553
PG05 -25099.232630   4423.352610  -7920.446708    -58.151538
PG06  -6922.010911 -20350.094560 -15500.982695     97.810290
PG07   5553.402832 -25632.813469  -1436.949245    264.788707
PG08  20727.433108   1764.424327  16684.311371    -40.649756
PG09   1804.818365 -17039.248502 -20359.656364   -361.866664
PG10   4332.069628  14443.782969  21976.202317   -227.059824
PG11 -13163.503700  -9008.068181 -21250.945675     21.241136
PG12 -23698.963944  10702.650402  -5297.015676   -113.662599
PG13 -21124.734924 -10366.056297  12316.786120    201.717397
PG14  -3711.368350 -14911.117704  21661.213523    -21.786574
PG15 -20882.761453    953.675849  16177.587350   -112.895292
PG16  24505.222503   1114.155323 -11000.174316   -409.480543
PG17  -9914.907576 -21196.357179  12986.474447    521.239611
PG18  -5176.427612  25994.482439   -322.547573    308.244332
PG19 -16456.858986 -20555.284078   3837.238032     67.772805
PG20 -20043.557301  -3109.344489 -17034.663093    518.564487
PG21  15309.563102  -8096.172108  20673.887707    148.230717
PG22  24383.166946  -9949.171234   2620.559101   -485.778104
PG23  -8566.911504  17134.938394  18339.530611     43.359932
PG24 -14405.478744  12822.421420  17817.391249    255.786820
PG25 -15952.881249  16265.098929 -13687.427331    226.751899
PG26  15798.416501   8808.696686 -19598.323243    146.397419
PG27  22665.100729  11082.628767   8702.979898   -208.128368
PG28 -10735.069459 -12315.858573  21447.903927    479.764249
PG29  -6008.636078  14227.189373 -21639.291552   -428.324781
PG30  -1938.816492 -24830.900358   8946.003716   -483.688854
PG31   8641.004958  18368.656234 -16976.590112   -145.697746
PG32  14256.878844  20393.564280   9658.065806    -11.783516
PR01  19195.399413  -4113.634309 -16289.133227     86.888459
PR02   -622.125856 -11222.627531 -22859.243197    497.147835
PR03 -18011.232226 -11011.249547 -14239.435096     44.945576
PR04 -24975.685318  -4654.275894   2229.985363    110.084718
PR05 -18091.768457   4206.865860  17471.831693     80.943979
PR07  18557.762386  10915.996231  13748.987781    -40.551350
PR08  25002.835725   4619.606721  -2176.606595    -61.556567
PR09  -8769.321876  19818.771772 -13491.581026     19.019883
PR11  16211.865198  -4588.988706 -19132.301301     49.789024
PR12  18265.927160 -17441.705585  -3622.670676    271.267789
PR13   9532.064959 -19872.535160  12831.149062    -62.326228
PR14  -5485.016684 -10280.829387  22706.038881     70.067731
PR15 -16635.739703   4861.081011  18740.845075    100.759611
PR16 -17475.874927  18325.797276   2404.165813    -23.432701
PR17 -10440.214340 -21928.094743  -7870.318589    467.512060
PR18 -12224.125428  -8584.454106 -20648.649271     94.266071
PR19  -8260.054378   8058.384463 -22745.173622   -163.687120
PR20   1565.378703  23305.842609 -10278.319042    -57.812416
PR21  10706.076572  21230.820997   9188.681154   -247.870548
PR22  12069.035915   7782.520278  21092.996330   -139.790610
PR24  -2182.386694 -23562.458263   9575.025810     63.317590
EOF
